NORAD_CAT_ID,OBJECT_NAME,OBJECT_TYPE,EPOCH,MEAN_MOTION,ECCENTRICITY,INCLINATION,RA_OF_ASC_NODE,ARG_OF_PERICENTER,MEAN_ANOMALY,BSTAR,MEAN_MOTION_DOT,MEAN_MOTION_DDOT,TLE_LINE0,TLE_LINE1,TLE_LINE2,SEMIMAJOR_AXIS,PERIOD,APOGEE,PERIGEE,DECAYED
52669.0,STARLINK-3972,PAYLOAD,2024-06-07 16:50:29,15.08855396,0.0002063,53.217,147.1394,81.3309,278.7917,3.9038e-05,3.33e-06,0.0,0 STARLINK-3972,1 52669U 22053P   24159.70173115  .00000333  00000-0  39038-4 0  9992,2 52669  53.2170 147.1394 0002063  81.3309 278.7917 15.08855396114425,6917.833,95.437,541.125,538.271,0.0
52669.0,STARLINK-3972,PAYLOAD,2024-06-08 05:33:34,15.08844591,0.0001899,53.2163,144.759,91.439,268.682,0.00011147,1.487e-05,0.0,0 STARLINK-3972,1 52669U 22053P   24160.23165401  .00001487  00000-0  11147-3 0  9992,2 52669  53.2163 144.7590 0001899  91.4390 268.6820 15.08844591114501,6917.866,95.437,541.045,538.418,0.0
52669.0,STARLINK-3972,PAYLOAD,2024-06-09 05:24:22,15.08835395,0.0002001,53.2169,140.2985,94.6673,265.4548,0.00011766,1.585e-05,0.0,0 STARLINK-3972,1 52669U 22053P   24161.22525720  .00001585  00000-0  11766-3 0  9992,2 52669  53.2169 140.2985 0002001  94.6673 265.4548 15.08835395114651,6917.894,95.438,541.144,538.375,0.0
52669.0,STARLINK-3972,PAYLOAD,2024-06-09 08:35:08,15.08839296,0.0001983,53.2172,139.704,95.7379,264.3839,1.2517e-05,-8.9e-07,0.0,0 STARLINK-3972,1 52669U 22053P   24161.35773614 -.00000089  00000-0  12517-4 0  9998,2 52669  53.2172 139.7040 0001983  95.7379 264.3839 15.08839296114670,6917.883,95.438,541.119,538.376,0.0
52669.0,STARLINK-3972,PAYLOAD,2024-06-10 14:47:27,15.0884375,0.0001849,53.2171,134.0549,94.6332,265.4871,2.759e-05,1.51e-06,0.0,0 STARLINK-3972,1 52669U 22053P   24162.61629429  .00000151  00000-0  27590-4 0  9998,2 52669  53.2171 134.0549 0001849  94.6332 265.4871 15.08843750114868,6917.869,95.437,541.013,538.455,0.0
52669.0,STARLINK-3972,PAYLOAD,2024-06-10 22:44:24,15.08831962,0.0001933,53.2192,132.5716,102.953,257.1678,7.1798e-05,8.54e-06,0.0,0 STARLINK-3972,1 52669U 22053P   24162.94750199  .00000854  00000-0  71798-4 0  9992,2 52669  53.2192 132.5716 0001933 102.9530 257.1678 15.08831962114918,6917.905,95.438,541.107,538.433,0.0
52669.0,STARLINK-3972,PAYLOAD,2024-06-11 05:05:56,15.0883348,0.0001925,53.2185,131.3827,104.077,256.0436,6.7754e-05,7.9e-06,0.0,0 STARLINK-3972,1 52669U 22053P   24163.21246260  .00000790  00000-0  67754-4 0  9998,2 52669  53.2185 131.3827 0001925 104.0770 256.0436 15.08833480114951,6917.9,95.438,541.097,538.434,0.0
52669.0,STARLINK-3972,PAYLOAD,2024-06-11 08:16:42,15.08836514,0.0001931,53.2183,130.7862,101.0082,259.1128,9.191e-05,1.175e-05,0.0,0 STARLINK-3972,1 52669U 22053P   24163.34494057  .00001175  00000-0  91910-4 0  9990,2 52669  53.2183 130.7862 0001931 101.0082 259.1128 15.08836514114976,6917.891,95.438,541.092,538.42,0.0
52669.0,STARLINK-3972,PAYLOAD,2024-06-12 06:32:06,15.08833738,0.000182,53.2176,126.6216,75.8865,284.2329,3.4801e-05,2.66e-06,0.0,0 STARLINK-3972,1 52669U 22053P   24164.27230260  .00000266  00000-0  34801-4 0  9993,2 52669  53.2176 126.6216 0001820  75.8865 284.2329 15.08833738115113,6917.9,95.438,541.024,538.505,0.0
52669.0,STARLINK-3972,PAYLOAD,2024-06-12 08:07:30,15.08832945,0.0001828,53.2178,126.326,79.252,280.8678,3.7639e-05,3.11e-06,0.0,0 STARLINK-3972,1 52669U 22053P   24164.33854348  .00000311  00000-0  37639-4 0  9992,2 52669  53.2178 126.3260 0001828  79.2520 280.8678 15.08832945115124,6917.902,95.438,541.032,538.502,0.0
52669.0,STARLINK-3972,PAYLOAD,2024-06-13 14:19:49,15.0884511,0.0001703,53.2165,120.6735,88.8451,271.2736,7.0995e-05,8.42e-06,0.0,0 STARLINK-3972,1 52669U 22053P   24165.59709795  .00000842  00000-0  70995-4 0  9997,2 52669  53.2165 120.6735 0001703  88.8451 271.2736 15.08845110115313,6917.865,95.437,540.908,538.552,0.0
52669.0,STARLINK-3972,PAYLOAD,2024-06-14 14:10:36,15.08846477,0.0001621,53.216,116.2126,93.8824,266.2354,0.00043527,6.647e-05,0.0,0 STARLINK-3972,1 52669U 22053P   24166.59070262  .00006647  00000-0  43527-3 0  9997,2 52669  53.2160 116.2126 0001621  93.8824 266.2354 15.08846477115465,6917.861,95.437,540.847,538.604,0.0
52669.0,STARLINK-3972,PAYLOAD,2024-06-15 01:18:18,15.08843426,0.000167,53.2161,114.131,93.7194,266.3989,0.00021453,3.128e-05,0.0,0 STARLINK-3972,1 52669U 22053P   24167.05438352  .00003128  00000-0  21453-3 0  9992,2 52669  53.2161 114.1310 0001670  93.7194 266.3989 15.08843426115535,6917.87,95.437,540.89,538.58,0.0
52669.0,STARLINK-3972,PAYLOAD,2024-06-16 02:44:28,15.08844038,0.0001529,53.2163,109.3729,96.0336,264.0831,0.00025742,3.812e-05,0.0,0 STARLINK-3972,1 52669U 22053P   24168.11422206  .00003812  00000-0  25742-3 0  9996,2 52669  53.2163 109.3729 0001529  96.0336 264.0831 15.08844038115692,6917.868,95.437,540.791,538.675,0.0
52669.0,STARLINK-3972,PAYLOAD,2024-06-16 20:13:43,15.08838306,0.00014,53.2156,106.1018,95.4023,264.7129,7.66e-05,9.31e-06,0.0,0 STARLINK-3972,1 52669U 22053P   24168.84286405  .00000931  00000-0  76600-4 0  9994,2 52669  53.2156 106.1018 0001400  95.4023 264.7129 15.08838306115805,6917.886,95.438,540.719,538.782,0.0
52669.0,STARLINK-3972,PAYLOAD,2024-06-17 12:07:34,15.0883873,0.0001361,53.2189,103.1318,92.1087,268.0061,3.8774e-05,3.29e-06,0.0,0 STARLINK-3972,1 52669U 22053P   24169.50526571  .00000329  00000-0  38774-4 0  9990,2 52669  53.2189 103.1318 0001361  92.1087 268.0061 15.08838730115905,6917.884,95.438,540.691,538.808,0.0
52669.0,STARLINK-3972,PAYLOAD,2024-06-18 02:26:03,15.08830322,0.0001476,53.2198,100.4561,86.2973,273.8188,6.7748e-05,7.9e-06,0.0,0 STARLINK-3972,1 52669U 22053P   24170.10143277  .00000790  00000-0  67748-4 0  9991,2 52669  53.2198 100.4561 0001476  86.2973 273.8188 15.08830322115992,6917.91,95.438,540.796,538.754,0.0
52669.0,STARLINK-3972,PAYLOAD,2024-06-18 11:58:21,15.08846578,0.0001519,53.2193,98.6725,96.9895,263.127,6.2498e-05,7.07e-06,0.0,0 STARLINK-3972,1 52669U 22053P   24170.49886178  .00000707  00000-0  62498-4 0  9992,2 52669  53.2193  98.6725 0001519  96.9895 263.1270 15.08846578116058,6917.86,95.437,540.776,538.674,0.0
52669.0,STARLINK-3972,PAYLOAD,2024-06-19 02:16:50,15.0883167,0.0001525,53.2197,95.9953,89.2896,270.8271,9.7961e-05,1.271e-05,0.0,0 STARLINK-3972,1 52669U 22053P   24171.09503312  .00001271  00000-0  97961-4 0  9995,2 52669  53.2197  95.9953 0001525  89.2896 270.8271 15.08831670116141,6917.906,95.438,540.826,538.716,0.0
52669.0,STARLINK-3972,PAYLOAD,2024-06-19 11:49:09,15.08838561,0.0001748,53.2188,94.2114,89.7549,270.3643,9.3923e-05,1.207e-05,0.0,0 STARLINK-3972,1 52669U 22053P   24171.49246998  .00001207  00000-0  93923-4 0  9996,2 52669  53.2188  94.2114 0001748  89.7549 270.3643 15.08838561116200,6917.885,95.438,540.959,538.541,0.0
52669.0,STARLINK-3972,PAYLOAD,2024-06-19 22:56:52,15.08830355,0.0001928,53.2191,92.1317,99.4729,260.6482,4.0078e-05,3.5e-06,0.0,0 STARLINK-3972,1 52669U 22053P   24171.95615831  .00000350  00000-0  40078-4 0  9994,2 52669  53.2191  92.1317 0001928  99.4729 260.6482 15.08830355116277,6917.91,95.438,541.109,538.441,0.0
52669.0,STARLINK-3972,PAYLOAD,2024-06-20 02:07:38,15.08835127,0.0001532,53.219,91.5345,93.1457,266.9711,-6.1512e-06,-3.86e-06,0.0,0 STARLINK-3972,1 52669U 22053P   24172.08863662 -.00000386  00000-0 -61512-5 0  9994,2 52669  53.2190  91.5345 0001532  93.1457 266.9711 15.08835127116298,6917.895,95.438,540.82,538.7,0.0
52669.0,STARLINK-3972,PAYLOAD,2024-06-20 11:39:56,15.08846871,0.0001576,53.219,89.75,86.9282,273.189,6.5427e-05,7.54e-06,0.0,0 STARLINK-3972,1 52669U 22053P   24172.48606772  .00000754  00000-0  65427-4 0  9990,2 52669  53.2190  89.7500 0001576  86.9282 273.1890 15.08846871116357,6917.859,95.437,540.815,538.634,0.0
52669.0,STARLINK-3972,PAYLOAD,2024-06-20 22:47:38,15.08834427,0.0001784,53.2178,87.6684,86.3154,273.8042,5.5732e-05,5.99e-06,0.0,0 STARLINK-3972,1 52669U 22053P   24172.94975686  .00000599  00000-0  55732-4 0  9999,2 52669  53.2178  87.6684 0001784  86.3154 273.8042 15.08834427116424,6917.897,95.438,540.997,538.528,0.0
52669.0,STARLINK-3972,PAYLOAD,2024-06-21 03:33:48,15.08842175,0.0001506,53.2174,86.7753,88.0528,272.0637,3.221e-05,2.25e-06,0.0,0 STARLINK-3972,1 52669U 22053P   24173.14847235  .00000225  00000-0  32210-4 0  9992,2 52669  53.2174  86.7753 0001506  88.0528 272.0637 15.08842175116456,6917.874,95.437,540.781,538.697,0.0
52669.0,STARLINK-3972,PAYLOAD,2024-06-21 22:38:25,15.08836777,0.0001547,53.2167,83.2066,89.8115,270.3054,0.00013383,1.842e-05,0.0,0 STARLINK-3972,1 52669U 22053P   24173.94335429  .00001842  00000-0  13383-3 0  9992,2 52669  53.2167  83.2066 0001547  89.8115 270.3054 15.08836777116571,6917.89,95.438,540.825,538.685,0.0
52669.0,STARLINK-3972,PAYLOAD,2024-06-22 00:13:48,15.08839532,0.0001471,53.2181,82.9099,92.0777,268.0383,7.1058e-05,8.43e-06,0.0,0 STARLINK-3972,1 52669U 22053P   24174.00959467  .00000843  00000-0  71058-4 0  9998,2 52669  53.2181  82.9099 0001471  92.0777 268.0383 15.08839532116587,6917.882,95.438,540.764,538.729,0.0
52669.0,STARLINK-3972,PAYLOAD,2024-06-22 17:43:03,15.08820758,0.000146,53.218,79.6371,95.2582,264.8577,0.00037373,5.662e-05,0.0,0 STARLINK-3972,1 52669U 22053P   24174.73823950  .00005662  00000-0  37373-3 0  9990,2 52669  53.2180  79.6371 0001460  95.2582 264.8577 15.08820758116690,6917.939,95.439,540.814,538.794,0.0
52669.0,STARLINK-3972,PAYLOAD,2024-06-22 22:29:12,15.08839863,0.0001548,53.2182,78.7469,89.832,270.285,0.00012029,1.627e-05,0.0,0 STARLINK-3972,1 52669U 22053P   24174.93695366  .00001627  00000-0  12029-3 0  9998,2 52669  53.2182  78.7469 0001548  89.8320 270.2850 15.08839863116722,6917.881,95.438,540.817,538.675,0.0
52669.0,STARLINK-3972,PAYLOAD,2024-06-23 03:15:21,15.08846282,0.0001371,53.2178,77.853,96.1309,263.9839,9.1113e-05,1.163e-05,0.0,0 STARLINK-3972,1 52669U 22053P   24175.13566919  .00001163  00000-0  91113-4 0  9999,2 52669  53.2178  77.8530 0001371  96.1309 263.9839 15.08846282116750,6917.861,95.437,540.675,538.778,0.0
